STARLINK-2213           
1 47780U 21017BL  26068.65627556  .00020507  00000+0  70254-3 0  9995
2 47780  53.1589 203.9945 0001113  71.0225 289.0897 15.30203136277894
YAOGAN-43 01D           
1 60461U 24148D   26068.43560480  .00010676  00000+0  37766-3 0  9999
2 60461  35.0010  61.7102 0002556 326.2473  33.8080 15.28369377 87008
